[{"OBJECT_NAME":"STARLINK-4810","OBJECT_ID":"2022-114BD","EPOCH":"2026-03-09T22:25:03.479520","MEAN_MOTION":15.08860246,"ECCENTRICITY":0.00012576,"INCLINATION":53.2176,"RA_OF_ASC_NODE":272.6922,"ARG_OF_PERICENTER":107.6981,"MEAN_ANOMALY":252.4148,"EPHEMERIS_TYPE":0,"CLASSIFICATION_TYPE":"U","NORAD_CAT_ID":53869,"ELEMENT_SET_NO":999,"REV_AT_EPOCH":19329,"BSTAR":-0.00021048966,"MEAN_MOTION_DOT":-3.638e-5,"MEAN_MOTION_DDOT":0},{"OBJECT_NAME":"CZ-2F DEB","OBJECT_ID":"2026-024D","EPOCH":"2026-03-09T22:29:00.721824","MEAN_MOTION":15.26264439,"ECCENTRICITY":0.02293172,"INCLINATION":50.3196,"RA_OF_ASC_NODE":17.4686,"ARG_OF_PERICENTER":280.8979,"MEAN_ANOMALY":76.6257,"EPHEMERIS_TYPE":0,"CLASSIFICATION_TYPE":"U","NORAD_CAT_ID":67692,"ELEMENT_SET_NO":999,"REV_AT_EPOCH":466,"BSTAR":0.0047386771,"MEAN_MOTION_DOT":0.00280979,"MEAN_MOTION_DDOT":0}]
